[{"OBJECT_NAME":"TEVEL2-6","OBJECT_ID":"2025-052F","EPOCH":"2026-03-09T15:35:24.554400","MEAN_MOTION":15.30760889,"ECCENTRICITY":0.0004769,"INCLINATION":97.4016,"RA_OF_ASC_NODE":325.0381,"ARG_OF_PERICENTER":95.6604,"MEAN_ANOMALY":264.5181,"EPHEMERIS_TYPE":0,"CLASSIFICATION_TYPE":"U","NORAD_CAT_ID":63215,"ELEMENT_SET_NO":999,"REV_AT_EPOCH":5486,"BSTAR":0.00070909,"MEAN_MOTION_DOT":0.00021046,"MEAN_MOTION_DDOT":0},{"OBJECT_NAME":"STARLINK-35743","OBJECT_ID":"2025-268X","EPOCH":"2026-03-08T05:00:22.608000","MEAN_MOTION":15.27542303,"ECCENTRICITY":6.245e-5,"INCLINATION":42.9997,"RA_OF_ASC_NODE":355.3917,"ARG_OF_PERICENTER":335.4914,"MEAN_ANOMALY":24.5908,"EPHEMERIS_TYPE":0,"CLASSIFICATION_TYPE":"U","NORAD_CAT_ID":66578,"ELEMENT_SET_NO":999,"REV_AT_EPOCH":1773,"BSTAR":0.0016535397,"MEAN_MOTION_DOT":0.00045468,"MEAN_MOTION_DDOT":0}]
