TEVEL2-6                
1 63215U 25052F   26068.64958975  .00021046  00000+0  70909-3 0  9996
2 63215  97.4016 325.0381 0004769  95.6604 264.5181 15.30760889 54861
STARLINK-35743          
1 66578U 25268X   26067.20859500  .00045468  00000+0  16535-2 0  9993
2 66578  42.9997 355.3917 0000624 335.4914  24.5908 15.27542303 17736
